{
  "type": "FeatureCollection",
  "features": [
    {
      "type": "Feature",
      "properties": {
        "norad_id": 34874,
        "name": "COSMOS 2251 DEB",
        "group": "cosmos-2251-debris",
        "lat": -3.184487282641473,
        "lon": 76.74590211067262,
        "alt_km": 784.2945498990748,
        "timestamp": "2025-12-10T14:53:37.483214+00:00",
        "meta_object_name": "COSMOS 2251 DEB",
        "meta_object_id": "1993-036ACM",
        "meta_epoch": "2025-12-08T12:49:57.989280",
        "meta_mean_motion": 14.36277608,
        "meta_eccentricity": 0.00511791,
        "meta_inclination": 74.0397,
        "meta_ra_of_asc_node": 81.487,
        "meta_arg_of_pericenter": 108.123,
        "meta_mean_anomaly": 268.2931,
        "meta_ephemeris_type": 0,
        "meta_classification_type": "U",
        "meta_norad_cat_id": 34874,
        "meta_element_set_no": 999,
        "meta_rev_at_epoch": 86984,
        "meta_bstar": 0.0015220199,
        "meta_mean_motion_dot": 4.491e-05,
        "meta_mean_motion_ddot": 0,
        "tle_line1": "1 34874U 93036ACM 25342.53469895  .00004491  00000+0  15220-2 0  9991",
        "tle_line2": "2 34874  74.0397  81.4870 0051179 108.1230 268.2931 14.36277608869844"
      },
      "geometry": {
        "type": "Point",
        "coordinates": [
          76.74590211067262,
          -3.184487282641473
        ]
      }
    },
    {
      "type": "Feature",
      "properties": {
        "norad_id": 34875,
        "name": "COSMOS 2251 DEB",
        "group": "cosmos-2251-debris",
        "lat": -43.82159951841907,
        "lon": 146.24928011408463,
        "alt_km": 725.4739877666725,
        "timestamp": "2025-12-10T14:53:37.483223+00:00",
        "meta_object_name": "COSMOS 2251 DEB",
        "meta_object_id": "1993-036ACN",
        "meta_epoch": "2025-12-08T22:15:07.367904",
        "meta_mean_motion": 14.48903769,
        "meta_eccentricity": 0.0016077,
        "meta_inclination": 74.0434,
        "meta_ra_of_asc_node": 165.3578,
        "meta_arg_of_pericenter": 289.2326,
        "meta_mean_anomaly": 195.3832,
        "meta_ephemeris_type": 0,
        "meta_classification_type": "U",
        "meta_norad_cat_id": 34875,
        "meta_element_set_no": 999,
        "meta_rev_at_epoch": 87700,
        "meta_bstar": 0.00057345,
        "meta_mean_motion_dot": 2.147e-05,
        "meta_mean_motion_ddot": 0,
        "tle_line1": "1 34875U 93036ACN 25342.92716861  .00002147  00000+0  57345-3 0  9994",
        "tle_line2": "2 34875  74.0434 165.3578 0016077 289.2326 195.3832 14.48903769877003"
      },
      "geometry": {
        "type": "Point",
        "coordinates": [
          146.24928011408463,
          -43.82159951841907
        ]
      }
    },
    {
      "type": "Feature",
      "properties": {
        "norad_id": 34878,
        "name": "COSMOS 2251 DEB",
        "group": "cosmos-2251-debris",
        "lat": 14.635612846489828,
        "lon": -133.621147660026,
        "alt_km": 1294.7940727223604,
        "timestamp": "2025-12-10T14:53:37.483232+00:00",
        "meta_object_name": "COSMOS 2251 DEB",
        "meta_object_id": "1993-036ACR",
        "meta_epoch": "2025-12-09T11:24:21.665664",
        "meta_mean_motion": 13.44185831,
        "meta_eccentricity": 0.04353122,
        "meta_inclination": 73.9652,
        "meta_ra_of_asc_node": 52.502,
        "meta_arg_of_pericenter": 36.6708,
        "meta_mean_anomaly": 343.8238,
        "meta_ephemeris_type": 0,
        "meta_classification_type": "U",
        "meta_norad_cat_id": 34878,
        "meta_element_set_no": 999,
        "meta_rev_at_epoch": 81229,
        "meta_bstar": 0.00088072379,
        "meta_mean_motion_dot": 8.84e-06,
        "meta_mean_motion_ddot": 0,
        "tle_line1": "1 34878U 93036ACR 25343.47525076  .00000884  00000+0  88072-3 0  9991",
        "tle_line2": "2 34878  73.9652  52.5020 0435312  36.6708 343.8238 13.44185831812297"
      },
      "geometry": {
        "type": "Point",
        "coordinates": [
          -133.621147660026,
          14.635612846489828
        ]
      }
    },
    {
      "type": "Feature",
      "properties": {
        "norad_id": 34882,
        "name": "COSMOS 2251 DEB",
        "group": "cosmos-2251-debris",
        "lat": 18.289748354509975,
        "lon": 44.21753159518168,
        "alt_km": 744.1305794678974,
        "timestamp": "2025-12-10T14:53:37.483241+00:00",
        "meta_object_name": "COSMOS 2251 DEB",
        "meta_object_id": "1993-036ACV",
        "meta_epoch": "2025-12-10T02:39:44.422848",
        "meta_mean_motion": 14.61589215,
        "meta_eccentricity": 0.00827465,
        "meta_inclination": 74.0466,
        "meta_ra_of_asc_node": 230.6168,
        "meta_arg_of_pericenter": 358.2159,
        "meta_mean_anomaly": 1.8698,
        "meta_ephemeris_type": 0,
        "meta_classification_type": "U",
        "meta_norad_cat_id": 34882,
        "meta_element_set_no": 999,
        "meta_rev_at_epoch": 88486,
        "meta_bstar": 0.00027513472,
        "meta_mean_motion_dot": 1.403e-05,
        "meta_mean_motion_ddot": 0,
        "tle_line1": "1 34882U 93036ACV 25344.11093082  .00001403  00000+0  27513-3 0  9996",
        "tle_line2": "2 34882  74.0466 230.6168 0082746 358.2159   1.8698 14.61589215884868"
      },
      "geometry": {
        "type": "Point",
        "coordinates": [
          44.21753159518168,
          18.289748354509975
        ]
      }
    },
    {
      "type": "Feature",
      "properties": {
        "norad_id": 34883,
        "name": "COSMOS 2251 DEB",
        "group": "cosmos-2251-debris",
        "lat": -67.65002124872444,
        "lon": 23.13846924993724,
        "alt_km": 672.0138879936576,
        "timestamp": "2025-12-10T14:53:37.483250+00:00",
        "meta_object_name": "COSMOS 2251 DEB",
        "meta_object_id": "1993-036ACW",
        "meta_epoch": "2025-12-10T05:18:22.814496",
        "meta_mean_motion": 14.51351166,
        "meta_eccentricity": 0.00948979,
        "meta_inclination": 74.1992,
        "meta_ra_of_asc_node": 67.4125,
        "meta_arg_of_pericenter": 252.9159,
        "meta_mean_anomaly": 106.1592,
        "meta_ephemeris_type": 0,
        "meta_classification_type": "U",
        "meta_norad_cat_id": 34883,
        "meta_element_set_no": 999,
        "meta_rev_at_epoch": 86403,
        "meta_bstar": 0.0070011239,
        "meta_mean_motion_dot": 0.00029675,
        "meta_mean_motion_ddot": 0,
        "tle_line1": "1 34883U 93036ACW 25344.22109739  .00029675  00000+0  70011-2 0  9997",
        "tle_line2": "2 34883  74.1992  67.4125 0094897 252.9159 106.1592 14.51351166864033"
      },
      "geometry": {
        "type": "Point",
        "coordinates": [
          23.13846924993724,
          -67.65002124872444
        ]
      }
    },
    {
      "type": "Feature",
      "properties": {
        "norad_id": 34884,
        "name": "COSMOS 2251 DEB",
        "group": "cosmos-2251-debris",
        "lat": -67.94915575569095,
        "lon": 15.947481845782526,
        "alt_km": 606.7894476392676,
        "timestamp": "2025-12-10T14:53:37.483259+00:00",
        "meta_object_name": "COSMOS 2251 DEB",
        "meta_object_id": "1993-036ACX",
        "meta_epoch": "2025-12-10T05:41:49.872192",
        "meta_mean_motion": 14.8986558,
        "meta_eccentricity": 0.00023595,
        "meta_inclination": 74.0169,
        "meta_ra_of_asc_node": 61.7548,
        "meta_arg_of_pericenter": 96.9395,
        "meta_mean_anomaly": 294.0838,
        "meta_ephemeris_type": 0,
        "meta_classification_type": "U",
        "meta_norad_cat_id": 34884,
        "meta_element_set_no": 999,
        "meta_rev_at_epoch": 87768,
        "meta_bstar": 0.0040899334,
        "meta_mean_motion_dot": 0.00039512,
        "meta_mean_motion_ddot": 0,
        "tle_line1": "1 34884U 93036ACX 25344.23738278  .00039512  00000+0  40899-2 0  9997",
        "tle_line2": "2 34884  74.0169  61.7548 0002359  96.9395 294.0838 14.89865580877681"
      },
      "geometry": {
        "type": "Point",
        "coordinates": [
          15.947481845782526,
          -67.94915575569095
        ]
      }
    },
    {
      "type": "Feature",
      "properties": {
        "norad_id": 34885,
        "name": "COSMOS 2251 DEB",
        "group": "cosmos-2251-debris",
        "lat": 68.32828796866153,
        "lon": -39.09190398283786,
        "alt_km": 724.3980362498833,
        "timestamp": "2025-12-10T14:53:37.483268+00:00",
        "meta_object_name": "COSMOS 2251 DEB",
        "meta_object_id": "1993-036ACY",
        "meta_epoch": "2025-12-09T07:47:52.071936",
        "meta_mean_motion": 14.51475671,
        "meta_eccentricity": 0.0015285,
        "meta_inclination": 74.0308,
        "meta_ra_of_asc_node": 189.4511,
        "meta_arg_of_pericenter": 275.1109,
        "meta_mean_anomaly": 262.2211,
        "meta_ephemeris_type": 0,
        "meta_classification_type": "U",
        "meta_norad_cat_id": 34885,
        "meta_element_set_no": 999,
        "meta_rev_at_epoch": 87429,
        "meta_bstar": 0.00097667,
        "meta_mean_motion_dot": 3.882e-05,
        "meta_mean_motion_ddot": 0,
        "tle_line1": "1 34885U 93036ACY 25343.32490824  .00003882  00000+0  97667-3 0  9996",
        "tle_line2": "2 34885  74.0308 189.4511 0015285 275.1109 262.2211 14.51475671874294"
      },
      "geometry": {
        "type": "Point",
        "coordinates": [
          -39.09190398283786,
          68.32828796866153
        ]
      }
    }
  ]
}